[{"OBJECT_NAME":"MAUVE","OBJECT_ID":"2025-276CU","EPOCH":"2026-03-09T17:14:44.951712","MEAN_MOTION":15.19228326,"ECCENTRICITY":5.768e-5,"INCLINATION":97.4273,"RA_OF_ASC_NODE":144.0489,"ARG_OF_PERICENTER":359.247,"MEAN_ANOMALY":0.8764,"EPHEMERIS_TYPE":0,"CLASSIFICATION_TYPE":"U","NORAD_CAT_ID":66756,"ELEMENT_SET_NO":999,"REV_AT_EPOCH":1532,"BSTAR":0.00039937228,"MEAN_MOTION_DOT":8.348e-5,"MEAN_MOTION_DDOT":0},{"OBJECT_NAME":"CZ-4 DEB","OBJECT_ID":"1990-081AM","EPOCH":"2026-03-09T17:46:45.223680","MEAN_MOTION":15.18516637,"ECCENTRICITY":0.00075172,"INCLINATION":98.1393,"RA_OF_ASC_NODE":114.284,"ARG_OF_PERICENTER":213.3287,"MEAN_ANOMALY":271.4543,"EPHEMERIS_TYPE":0,"CLASSIFICATION_TYPE":"U","NORAD_CAT_ID":20877,"ELEMENT_SET_NO":999,"REV_AT_EPOCH":85586,"BSTAR":0.0032141907,"MEAN_MOTION_DOT":0.00066859,"MEAN_MOTION_DDOT":0}]
